start=new Date('2023-06-30T00:00:00.000Z').valueOf();
sats=[{"SITE":"AFETR","TLE_LINE2":"2 53629  53.2184 331.3057 0001029  90.9312 269.1798 15.08839006 46516","RCS_SIZE":"LARGE","MEAN_ELEMENT_THEORY":"SGP4","MEAN_ANOMALY":"269.1798","PERIAPSIS":"539.037","OBJECT_NAME":"STARLINK-4602","DECAY_DATE":null,"MEAN_MOTION":"15.08839006","COUNTRY_CODE":"US","EPHEMERIS_TYPE":"0","LAUNCH_DATE":"2022-08-28","RA_OF_ASC_NODE":"331.3057","ELEMENT_SET_NO":"999","OBJECT_ID":"2022-104AT","TLE_LINE1":"1 53629U 22104AT  23180.65444760  .00000291  00000-0  36363-4 0  9991","EPOCH":"2023-06-29T15:42:24.272640","REF_FRAME":"TEME","CENTER_NAME":"EARTH","GP_ID":"234629973","BSTAR":"0.00003636300000","CLASSIFICATION_TYPE":"U","APOAPSIS":"540.460","REV_AT_EPOCH":"4651","NORAD_CAT_ID":"53629","INCLINATION":"53.2184","MEAN_MOTION_DOT":"0.00000291","ECCENTRICITY":"0.00010290","SEMIMAJOR_AXIS":"6917.883","MEAN_MOTION_DDOT":"0.0000000000000","FILE":"3945958","ARG_OF_PERICENTER":"90.9312","TIME_SYSTEM":"UTC","OBJECT_TYPE":"PAYLOAD","PERIOD":"95.438"},{"EPOCH":"2023-06-29T18:06:51.995808","TLE_LINE1":"1 53630U 22104AU  23180.75476847  .00002982  00000-0  20533-3 0  9995","REF_FRAME":"TEME","CENTER_NAME":"EARTH","COUNTRY_CODE":"US","RA_OF_ASC_NODE":"321.2407","LAUNCH_DATE":"2022-08-28","EPHEMERIS_TYPE":"0","OBJECT_ID":"2022-104AU","ELEMENT_SET_NO":"999","MEAN_MOTION":"15.08847766","DECAY_DATE":null,"TLE_LINE2":"2 53630  53.2173 321.2407 0001025  94.1569 265.9540 15.08847766 46666","SITE":"AFETR","MEAN_ELEMENT_THEORY":"SGP4","RCS_SIZE":"LARGE","OBJECT_NAME":"STARLINK-4598","MEAN_ANOMALY":"265.9540","PERIAPSIS":"539.013","ARG_OF_PERICENTER":"94.1569","TIME_SYSTEM":"UTC","OBJECT_TYPE":"PAYLOAD","PERIOD":"95.437","FILE":"3945958","MEAN_MOTION_DDOT":"0.0000000000000","APOAPSIS":"540.431","NORAD_CAT_ID":"53630","REV_AT_EPOCH":"4666","ECCENTRICITY":"0.00010250","MEAN_MOTION_DOT":"0.00002982","INCLINATION":"53.2173","SEMIMAJOR_AXIS":"6917.857","GP_ID":"234630467","BSTAR":"0.00020533000000","CLASSIFICATION_TYPE":"U"},{"OBJECT_TYPE":"PAYLOAD","TIME_SYSTEM":"UTC","ARG_OF_PERICENTER":"95.5486","PERIOD":"95.437","MEAN_MOTION_DDOT":"0.0000000000000","FILE":"3945216","REV_AT_EPOCH":"4637","NORAD_CAT_ID":"53631","APOAPSIS":"540.345","SEMIMAJOR_AXIS":"6917.876","MEAN_MOTION_DOT":"0.00001130","INCLINATION":"53.2174","ECCENTRICITY":"0.00008730","BSTAR":"0.00008908300000","GP_ID":"234611587","CLASSIFICATION_TYPE":"U","TLE_LINE1":"1 53631U 22104AV  23179.71971411  .00001130  00000-0  89083-4 0  9997","EPOCH":"2023-06-28T17:16:23.299104","CENTER_NAME":"EARTH","REF_FRAME":"TEME","COUNTRY_CODE":"US","OBJECT_ID":"2022-104AV","ELEMENT_SET_NO":"999","EPHEMERIS_TYPE":"0","LAUNCH_DATE":"2022-08-28","RA_OF_ASC_NODE":"335.4249","DECAY_DATE":null,"MEAN_MOTION":"15.08841276","RCS_SIZE":"LARGE","MEAN_ELEMENT_THEORY":"SGP4","SITE":"AFETR","TLE_LINE2":"2 53631  53.2174 335.4249 0000873  95.5486 264.5606 15.08841276 46378","PERIAPSIS":"539.138","MEAN_ANOMALY":"264.5606","OBJECT_NAME":"STARLINK-4599"},{"PERIOD":"95.437","ARG_OF_PERICENTER":"94.6417","OBJECT_TYPE":"PAYLOAD","TIME_SYSTEM":"UTC","FILE":"3945959","MEAN_MOTION_DDOT":"0.0000000000000","ECCENTRICITY":"0.00011060","MEAN_MOTION_DOT":"0.00000802","INCLINATION":"53.2185","SEMIMAJOR_AXIS":"6917.874","APOAPSIS":"540.504","NORAD_CAT_ID":"53632","REV_AT_EPOCH":"4666","CLASSIFICATION_TYPE":"U","GP_ID":"234629985","BSTAR":"0.00006846000000","REF_FRAME":"TEME","CENTER_NAME":"EARTH","EPOCH":"2023-06-29T17:56:15.468000","TLE_LINE1":"1 53632U 22104AW  23180.74740125  .00000802  00000-0  68460-4 0  9990","EPHEMERIS_TYPE":"0","LAUNCH_DATE":"2022-08-28","RA_OF_ASC_NODE":"321.1934","OBJECT_ID":"2022-104AW","ELEMENT_SET_NO":"999","COUNTRY_CODE":"US","MEAN_MOTION":"15.08842006","DECAY_DATE":null,"OBJECT_NAME":"STARLINK-4606","PERIAPSIS":"538.974","MEAN_ANOMALY":"265.4702","TLE_LINE2":"2 53632  53.2185 321.1934 0001106  94.6417 265.4702 15.08842006 46669","SITE":"AFETR","MEAN_ELEMENT_THEORY":"SGP4","RCS_SIZE":"LARGE"},{"MEAN_ANOMALY":"266.1004","PERIAPSIS":"539.011","OBJECT_NAME":"STARLINK-4593","TLE_LINE2":"2 53633  53.2166 321.2157 0001039  94.0107 266.1004 15.08844969 46665","SITE":"AFETR","RCS_SIZE":"LARGE","MEAN_ELEMENT_THEORY":"SGP4","DECAY_DATE":null,"MEAN_MOTION":"15.08844969","LAUNCH_DATE":"2022-08-28","EPHEMERIS_TYPE":"0","RA_OF_ASC_NODE":"321.2157","ELEMENT_SET_NO":"999","OBJECT_ID":"2022-104AX","COUNTRY_CODE":"US","REF_FRAME":"TEME","CENTER_NAME":"EARTH","TLE_LINE1":"1 53633U 22104AX  23180.75108291  .00000822  00000-0  69717-4 0  9992","EPOCH":"2023-06-29T18:01:33.563424","CLASSIFICATION_TYPE":"U","GP_ID":"234629972","BSTAR":"0.00006971700000","INCLINATION":"53.2166","MEAN_MOTION_DOT":"0.00000822","ECCENTRICITY":"0.00010390","SEMIMAJOR_AXIS":"6917.865","APOAPSIS":"540.449","REV_AT_EPOCH":"4666","NORAD_CAT_ID":"53633","MEAN_MOTION_DDOT":"0.0000000000000","FILE":"3945958","PERIOD":"95.437","ARG_OF_PERICENTER":"94.0107","OBJECT_TYPE":"PAYLOAD","TIME_SYSTEM":"UTC"},{"PERIOD":"95.438","ARG_OF_PERICENTER":"101.0047","OBJECT_TYPE":"PAYLOAD","TIME_SYSTEM":"UTC","FILE":"3945958","MEAN_MOTION_DDOT":"0.0000000000000","ECCENTRICITY":"0.00010040","MEAN_MOTION_DOT":"-0.00000477","INCLINATION":"53.2184","SEMIMAJOR_AXIS":"6917.887","APOAPSIS":"540.446","NORAD_CAT_ID":"53634","REV_AT_EPOCH":"4665","CLASSIFICATION_TYPE":"U","GP_ID":"234629966","BSTAR":"-0.00001188100000","REF_FRAME":"TEME","CENTER_NAME":"EARTH","EPOCH":"2023-06-29T16:10:15.609792","TLE_LINE1":"1 53634U 22104AY  23180.67379178 -.00000477  00000-0 -11881-4 0  9995","LAUNCH_DATE":"2022-08-28","EPHEMERIS_TYPE":"0","RA_OF_ASC_NODE":"321.4481","ELEMENT_SET_NO":"999","OBJECT_ID":"2022-104AY","COUNTRY_CODE":"US","MEAN_MOTION":"15.08837915","DECAY_DATE":null,"OBJECT_NAME":"STARLINK-4592","MEAN_ANOMALY":"259.1058","PERIAPSIS":"539.057","TLE_LINE2":"2 53634  53.2184 321.4481 0001004 101.0047 259.1058 15.08837915 46655","SITE":"AFETR","MEAN_ELEMENT_THEORY":"SGP4","RCS_SIZE":"LARGE"},{"LAUNCH_DATE":"2022-08-28","EPHEMERIS_TYPE":"0","RA_OF_ASC_NODE":"321.7654","OBJECT_ID":"2022-104AZ","ELEMENT_SET_NO":"999","COUNTRY_CODE":"US","REF_FRAME":"TEME","CENTER_NAME":"EARTH","EPOCH":"2023-06-29T14:40:11.169696","TLE_LINE1":"1 53635U 22104AZ  23180.61124039  .00000361  00000-0  40762-4 0  9994","OBJECT_NAME":"STARLINK-4587","PERIAPSIS":"538.973","MEAN_ANOMALY":"277.5276","SITE":"AFETR","TLE_LINE2":"2 53635  53.2176 321.7654 0001120  82.5843 277.5276 15.08839212 46645","MEAN_ELEMENT_THEORY":"SGP4","RCS_SIZE":"LARGE","MEAN_MOTION":"15.08839212","DECAY_DATE":null,"FILE":"3945958","MEAN_MOTION_DDOT":"0.0000000000000","PERIOD":"95.438","ARG_OF_PERICENTER":"82.5843","TIME_SYSTEM":"UTC","OBJECT_TYPE":"PAYLOAD","CLASSIFICATION_TYPE":"U","GP_ID":"234629959","BSTAR":"0.00004076200000","ECCENTRICITY":"0.00011200","INCLINATION":"53.2176","MEAN_MOTION_DOT":"0.00000361","SEMIMAJOR_AXIS":"6917.883","APOAPSIS":"540.523","NORAD_CAT_ID":"53635","REV_AT_EPOCH":"4664"},{"DECAY_DATE":null,"MEAN_MOTION":"15.08842622","RCS_SIZE":"LARGE","MEAN_ELEMENT_THEORY":"SGP4","SITE":"AFETR","TLE_LINE2":"2 53636  53.2194 321.0996 0001432 118.7306 241.3830 15.08842622 46666","MEAN_ANOMALY":"241.3830","PERIAPSIS":"538.747","OBJECT_NAME":"STARLINK-4586","TLE_LINE1":"1 53636U 22104BA  23180.73266188 -.00000084  00000-0  12803-4 0  9998","EPOCH":"2023-06-29T17:35:01.986432","CENTER_NAME":"EARTH","REF_FRAME":"TEME","COUNTRY_CODE":"US","ELEMENT_SET_NO":"999","OBJECT_ID":"2022-104BA","LAUNCH_DATE":"2022-08-28","EPHEMERIS_TYPE":"0","RA_OF_ASC_NODE":"321.0996","REV_AT_EPOCH":"4666","NORAD_CAT_ID":"53636","APOAPSIS":"540.728","SEMIMAJOR_AXIS":"6917.872","MEAN_MOTION_DOT":"-0.00000084","INCLINATION":"53.2194","ECCENTRICITY":"0.00014320","BSTAR":"0.00001280300000","GP_ID":"234629960","CLASSIFICATION_TYPE":"U","TIME_SYSTEM":"UTC","OBJECT_TYPE":"PAYLOAD","ARG_OF_PERICENTER":"118.7306","PERIOD":"95.437","MEAN_MOTION_DDOT":"0.0000000000000","FILE":"3945958"},{"FILE":"3945703","MEAN_MOTION_DDOT":"0.0000000000000","PERIOD":"95.437","ARG_OF_PERICENTER":"73.3196","OBJECT_TYPE":"PAYLOAD","TIME_SYSTEM":"UTC","CLASSIFICATION_TYPE":"U","GP_ID":"234623604","BSTAR":"0.00019456000000","ECCENTRICITY":"0.00009990","MEAN_MOTION_DOT":"0.00002810","INCLINATION":"53.2167","SEMIMAJOR_AXIS":"6917.872","APOAPSIS":"540.428","NORAD_CAT_ID":"53637","REV_AT_EPOCH":"4653","LAUNCH_DATE":"2022-08-28","EPHEMERIS_TYPE":"0","RA_OF_ASC_NODE":"324.9917","OBJECT_ID":"2022-104BB","ELEMENT_SET_NO":"999","COUNTRY_CODE":"US","REF_FRAME":"TEME","CENTER_NAME":"EARTH","EPOCH":"2023-06-28T21:00:19.649088","TLE_LINE1":"1 53637U 22104BB  23179.87522742  .00002810  00000-0  19456-3 0  9991","OBJECT_NAME":"STARLINK-4396","PERIAPSIS":"539.046","MEAN_ANOMALY":"286.7906","SITE":"AFETR","TLE_LINE2":"2 53637  53.2167 324.9917 0000999  73.3196 286.7906 15.08842635 46539","MEAN_ELEMENT_THEORY":"SGP4","RCS_SIZE":"LARGE","MEAN_MOTION":"15.08842635","DECAY_DATE":null},{"ARG_OF_PERICENTER":"100.1175","OBJECT_TYPE":"PAYLOAD","TIME_SYSTEM":"UTC","PERIOD":"95.437","FILE":"3945723","MEAN_MOTION_DDOT":"0.0000000000000","APOAPSIS":"540.471","NORAD_CAT_ID":"53638","REV_AT_EPOCH":"4661","ECCENTRICITY":"0.00010770","MEAN_MOTION_DOT":"0.00002996","INCLINATION":"53.2180","SEMIMAJOR_AXIS":"6917.861","GP_ID":"234624655","BSTAR":"0.00020618000000","CLASSIFICATION_TYPE":"U","EPOCH":"2023-06-29T09:11:34.261152","TLE_LINE1":"1 53638U 22104BC  23180.38303543  .00002996  00000-0  20618-3 0  9993","REF_FRAME":"TEME","CENTER_NAME":"EARTH","COUNTRY_CODE":"US","EPHEMERIS_TYPE":"0","LAUNCH_DATE":"2022-08-28","RA_OF_ASC_NODE":"322.4779","ELEMENT_SET_NO":"999","OBJECT_ID":"2022-104BC","MEAN_MOTION":"15.08846343","DECAY_DATE":null,"TLE_LINE2":"2 53638  53.2180 322.4779 0001077 100.1175 259.9939 15.08846343 46615","SITE":"AFETR","MEAN_ELEMENT_THEORY":"SGP4","RCS_SIZE":"LARGE","OBJECT_NAME":"STARLINK-4594","PERIAPSIS":"538.981","MEAN_ANOMALY":"259.9939"}];
